[{"OBJECT_NAME":"STARLINK-34117","OBJECT_ID":"2025-102U","EPOCH":"2026-03-09T12:28:57.378720","MEAN_MOTION":14.98306685,"ECCENTRICITY":0.0003098,"INCLINATION":70.0009,"RA_OF_ASC_NODE":115.004,"ARG_OF_PERICENTER":269.949,"MEAN_ANOMALY":90.1314,"EPHEMERIS_TYPE":0,"CLASSIFICATION_TYPE":"U","NORAD_CAT_ID":64040,"ELEMENT_SET_NO":999,"REV_AT_EPOCH":4586,"BSTAR":0.00077784,"MEAN_MOTION_DOT":9.195e-5,"MEAN_MOTION_DDOT":0},{"OBJECT_NAME":"XSS-10","OBJECT_ID":"2003-005B","EPOCH":"2026-03-09T22:36:04.304736","MEAN_MOTION":14.89771195,"ECCENTRICITY":0.01472532,"INCLINATION":39.7452,"RA_OF_ASC_NODE":284.3199,"ARG_OF_PERICENTER":105.9853,"MEAN_ANOMALY":255.7209,"EPHEMERIS_TYPE":0,"CLASSIFICATION_TYPE":"U","NORAD_CAT_ID":27664,"ELEMENT_SET_NO":999,"REV_AT_EPOCH":24782,"BSTAR":0.00036723179,"MEAN_MOTION_DOT":4.24e-5,"MEAN_MOTION_DDOT":0}]
